[
  "TORO                    \r\n1 60530U 24149BQ  26182.95040536  .00002730  00000+0  24553-3 0  9998\r\n2 60530  97.6780 257.3426 0001455  98.7554 261.3833 14.96475121102161\r\n",
  "TORO3                   \r\n1 68481U 26067BT  26182.85240002  .00000692  00000+0  73523-4 0  9998\r\n2 68481  97.7678 141.0029 0001267 266.3292  93.7782 14.92151706 13912\r\n",
  "SATORO-T3               \r\n1 64589U 25135BP  26182.82678339  .00001609  00000+0  15476-3 0  9994\r\n2 64589  97.7731 297.2050 0003452 288.9396  71.1449 14.94390816 56093\r\n",
  "GEMINI-POLLUX           \r\n1 69000U 26100W   26182.27648969  .00002233  00000+0  22421-3 0  9997\r\n2 69000  97.7309  79.4881 0001480 118.3922 241.7446 14.92280080  8806\r\n",
  "FORMOSAT-2 (ROCSAT 2)   \r\n1 28254U 04018A   26182.46956476 -.00000217  00000+0 -11559-3 0  9995\r\n2 28254  98.8458 149.5141 0000737 314.4641 156.4184 14.01257452130756\r\n",
  "FORMOSAT-3 FM6          \r\n1 29047U 06011A   26182.49874081  .00000454  00000+0  18459-3 0  9992\r\n2 29047  71.9780 282.0131 0049266 214.7443 145.0475 14.31409627 56458\r\n",
  "FORMOSAT-3 FM1          \r\n1 29048U 06011B   26182.42276225  .00000352  00000+0  14709-3 0  9993\r\n2 29048  71.9641 190.5711 0042032 178.4532 181.6744 14.31399950 58815\r\n",
  "FORMOSAT-3 FM5          \r\n1 29049U 06011C   26182.89215223  .00000407  00000+0  16804-3 0  9995\r\n2 29049  72.0188  13.8212 0033946 184.0321 176.0549 14.31415225 54776\r\n",
  "FORMOSAT-3 FM3          \r\n1 29050U 06011D   26182.70965118  .00001220  00000+0  22368-3 0  9998\r\n2 29050  72.0139 280.8450 0044962 259.2489 100.3605 14.66989811 78509\r\n",
  "FORMOSAT-3 FM4          \r\n1 29051U 06011E   26182.71127679  .00000345  00000+0  14171-3 0  9992\r\n2 29051  72.0043 271.7095 0064363  64.6525 296.1259 14.31550806 57342\r\n",
  "FORMOSAT-3 FM2          \r\n1 29052U 06011F   26182.91900265  .00000466  00000+0  18896-3 0  9997\r\n2 29052  72.0331 352.1470 0037805 136.4873 223.9259 14.31629411 54893\r\n",
  "PACE                    \r\n1 40022U 14033N   26182.96447382  .00006557  00000+0  39704-3 0  9999\r\n2 40022  98.1231 188.7427 0006930 155.6354 204.5203 15.10963150655269\r\n",
  "FORMOSAT-5              \r\n1 42920U 17049A   26182.87998639  .00000169  00000+0  53891-4 0  9991\r\n2 42920  98.2252 257.8632 0012195  43.2628 316.9523 14.50904081468800\r\n",
  "FORMOSAT 7-3            \r\n1 44343U 19036E   26182.92112809  .00005516  00000+0  31067-3 0  9994\r\n2 44343  23.9994  77.1234 0001039  92.1380 267.9242 15.09904501385479\r\n",
  "FORMOSAT 7-1            \r\n1 44349U 19036L   26182.64901919  .00002794  00000+0  21364-3 0  9991\r\n2 44349  23.9988 294.8959 0000833  19.0470 341.0062 14.96568366386823\r\n",
  "FORMOSAT 7-4            \r\n1 44350U 19036M   26182.80492332  .00003014  00000+0  23259-3 0  9996\r\n2 44350  23.9999 355.9488 0001236  17.9596 342.0948 14.96561791386264\r\n",
  "FORMOSAT 7-2            \r\n1 44351U 19036N   26182.89394761  .00003048  00000+0  23547-3 0  9990\r\n2 44351  23.9995  49.6622 0000689  26.8082 333.2455 14.96559900385799\r\n",
  "FORMOSAT 7-6            \r\n1 44353U 19036Q   26182.82690090  .00002583  00000+0  19555-3 0  9996\r\n2 44353  23.9968 230.9313 0000624 272.0382  88.0047 14.96569542384019\r\n",
  "FORMOSAT 7-5            \r\n1 44358U 19036V   26182.27074672  .00001822  00000+0  13031-3 0  9990\r\n2 44358  23.9968 173.4291 0000354  50.6328 309.4204 14.96560765384462\r\n",
  "FORMOSAT-7R (TRITON)    \r\n1 58017U 23155B   26182.93514514  .00001575  00000+0  16434-3 0  9996\r\n2 58017  97.8356 264.2256 0002255  68.7001 291.4458 14.91161533148420\r\n",
  "NIGHTJAR                \r\n1 60535U 24149BV  26182.94401661  .00003663  00000+0  30635-3 0  9996\r\n2 60535  97.6828 259.4437 0001386 118.3057 241.8306 14.99095448145083\r\n",
  "IRIS-F3                 \r\n1 62619U 25009L   26182.20869011  .00007042  00000+0  26674-3 0  9996\r\n2 62619  97.4048 262.9409 0004789 271.6447  88.4243 15.27210855 80967\r\n",
  "IRIS-F2                 \r\n1 62684U 25009CD  26182.94627225  .00017728  00000+0  66942-3 0  9992\r\n2 62684  97.3893 262.5749 0003939 299.4341  60.6504 15.27062921138714\r\n",
  "FORMOSAT-8A             \r\n1 66666U 25276A   26182.94110297  .00001748  00000+0  14261-3 0  9990\r\n2 66666  97.6547 256.9635 0003903 181.1295 178.9921 15.00716271 32279\r\n",
  "LILIUM-2                \r\n1 66679U 25276P   26182.93927058  .00003173  00000+0  15910-3 0  9990\r\n2 66679  97.4150 255.6874 0004901 327.5124  32.5808 15.18047523 32633\r\n",
  "BLACK KITE-1            \r\n1 66741U 25276CD  26182.91769278  .00009608  00000+0  43861-3 0  9991\r\n2 66741  97.4241 256.4242 0004075 304.2766  55.8083 15.20801438 29969\r\n",
  "T.MICROSAT-1            \r\n1 66766U 25276DE  26182.94541921  .00007395  00000+0  33677-3 0  9999\r\n2 66766  97.4159 256.4430 0002148 112.5486 247.5977 15.20973806 32685\r\n",
  "LILIUM-3                \r\n1 66770U 25276DJ  26182.64608000  .00003527  00000+0  16891-3 0  9995\r\n2 66770  97.4242 256.1656 0002086 155.5970 204.5364 15.19585996 32620\r\n",
  "T.MICROSAT-2            \r\n1 68433U 26067T   26182.69970085  .00006551  00000+0  32965-3 0  9992\r\n2 68433  97.4578 140.8520 0006425  29.5616 330.5980 15.17534921 14137\r\n",
  "PARUS-6U1               \r\n1 68456U 26067AS  26182.43063457  .00007721  00000+0  38640-3 0  9991\r\n2 68456  97.4561 140.5764 0006354  33.4199 326.7435 15.17668479 14095\r\n",
  "BLACK KITE-2            \r\n1 68474U 26067BL  26182.42664574  .00003380  00000+0  33347-3 0  9993\r\n2 68474  97.7554 140.5049 0002256 149.5809 210.5542 14.92646413 13858\r\n",
  "PEARL-1B                \r\n1 68980U 26100A   26182.94642378  .00002415  00000+0  25209-3 0  9994\r\n2 68980  97.7350  80.0176 0008879  96.5649 263.6580 14.90622809  8882\r\n",
  "PEARL-1A                \r\n1 68990U 26100L   26182.52697922  .00001821  00000+0  18966-3 0  9996\r\n2 68990  97.7298  79.6124 0006722 109.6096 250.5849 14.91020647  8839\r\n"
]